[{"OBJECT_NAME":"ICEYE-X4","OBJECT_ID":"2019-038D","EPOCH":"2026-03-09T23:53:58.416000","MEAN_MOTION":15.26985132,"ECCENTRICITY":0.00122769,"INCLINATION":97.8888,"RA_OF_ASC_NODE":96.1923,"ARG_OF_PERICENTER":293.9914,"MEAN_ANOMALY":66.0038,"EPHEMERIS_TYPE":0,"CLASSIFICATION_TYPE":"U","NORAD_CAT_ID":44390,"ELEMENT_SET_NO":999,"REV_AT_EPOCH":36665,"BSTAR":0.00049915294,"MEAN_MOTION_DOT":0.00013179,"MEAN_MOTION_DDOT":0},{"OBJECT_NAME":"STARLINK-35041","OBJECT_ID":"2025-243M","EPOCH":"2026-03-09T18:17:04.566624","MEAN_MOTION":15.30203824,"ECCENTRICITY":9.045e-5,"INCLINATION":53.1586,"RA_OF_ASC_NODE":245.0016,"ARG_OF_PERICENTER":118.8471,"MEAN_ANOMALY":241.262,"EPHEMERIS_TYPE":0,"CLASSIFICATION_TYPE":"U","NORAD_CAT_ID":66188,"ELEMENT_SET_NO":999,"REV_AT_EPOCH":2066,"BSTAR":0.00085424912,"MEAN_MOTION_DOT":0.00025029,"MEAN_MOTION_DDOT":0}]
